[{"OBJECT_NAME":"HULIANWANG DIGUI-49","OBJECT_ID":"2025-168A","EPOCH":"2026-03-07T07:01:52.484448","MEAN_MOTION":13.29339114,"ECCENTRICITY":0.00074225,"INCLINATION":50.0048,"RA_OF_ASC_NODE":331.4209,"ARG_OF_PERICENTER":158.2892,"MEAN_ANOMALY":201.8296,"EPHEMERIS_TYPE":0,"CLASSIFICATION_TYPE":"U","NORAD_CAT_ID":65106,"ELEMENT_SET_NO":999,"REV_AT_EPOCH":2913,"BSTAR":0.00018963286,"MEAN_MOTION_DOT":-3.6e-7,"MEAN_MOTION_DDOT":0},{"OBJECT_NAME":"HULIANWANG DIGUI-50","OBJECT_ID":"2025-168B","EPOCH":"2026-03-07T06:49:46.439328","MEAN_MOTION":13.29339684,"ECCENTRICITY":0.00084081,"INCLINATION":50.0018,"RA_OF_ASC_NODE":331.3198,"ARG_OF_PERICENTER":144.2434,"MEAN_ANOMALY":215.9003,"EPHEMERIS_TYPE":0,"CLASSIFICATION_TYPE":"U","NORAD_CAT_ID":65107,"ELEMENT_SET_NO":999,"REV_AT_EPOCH":2913,"BSTAR":0.00017493798,"MEAN_MOTION_DOT":-4.3e-7,"MEAN_MOTION_DDOT":0},{"OBJECT_NAME":"HULIANWANG DIGUI-51","OBJECT_ID":"2025-168C","EPOCH":"2026-03-07T06:37:43.648896","MEAN_MOTION":13.29339962,"ECCENTRICITY":0.00097603,"INCLINATION":50.0055,"RA_OF_ASC_NODE":331.3465,"ARG_OF_PERICENTER":144.2633,"MEAN_ANOMALY":215.8894,"EPHEMERIS_TYPE":0,"CLASSIFICATION_TYPE":"U","NORAD_CAT_ID":65108,"ELEMENT_SET_NO":999,"REV_AT_EPOCH":2913,"BSTAR":0.00018219083,"MEAN_MOTION_DOT":-4.0e-7,"MEAN_MOTION_DDOT":0},{"OBJECT_NAME":"HULIANWANG DIGUI-52","OBJECT_ID":"2025-168D","EPOCH":"2026-03-07T06:25:51.899520","MEAN_MOTION":13.29338593,"ECCENTRICITY":0.00096157,"INCLINATION":50.0048,"RA_OF_ASC_NODE":331.286,"ARG_OF_PERICENTER":157.2443,"MEAN_ANOMALY":202.8857,"EPHEMERIS_TYPE":0,"CLASSIFICATION_TYPE":"U","NORAD_CAT_ID":65109,"ELEMENT_SET_NO":999,"REV_AT_EPOCH":2913,"BSTAR":0.00018974686,"MEAN_MOTION_DOT":-3.6e-7,"MEAN_MOTION_DDOT":0},{"OBJECT_NAME":"HULIANWANG DIGUI-53","OBJECT_ID":"2025-168E","EPOCH":"2026-03-07T06:13:50.062944","MEAN_MOTION":13.29338482,"ECCENTRICITY":0.00084348,"INCLINATION":50.0056,"RA_OF_ASC_NODE":331.2644,"ARG_OF_PERICENTER":146.8917,"MEAN_ANOMALY":213.2485,"EPHEMERIS_TYPE":0,"CLASSIFICATION_TYPE":"U","NORAD_CAT_ID":65110,"ELEMENT_SET_NO":999,"REV_AT_EPOCH":2913,"BSTAR":0.00019208595,"MEAN_MOTION_DOT":-3.5e-7,"MEAN_MOTION_DDOT":0},{"OBJECT_NAME":"HULIANWANG DIGUI-54","OBJECT_ID":"2025-168F","EPOCH":"2026-03-07T05:38:00.936384","MEAN_MOTION":13.29335812,"ECCENTRICITY":0.0010008,"INCLINATION":50.0006,"RA_OF_ASC_NODE":331.0436,"ARG_OF_PERICENTER":152.1411,"MEAN_ANOMALY":207.9998,"EPHEMERIS_TYPE":0,"CLASSIFICATION_TYPE":"U","NORAD_CAT_ID":65111,"ELEMENT_SET_NO":999,"REV_AT_EPOCH":2913,"BSTAR":0.00021392034,"MEAN_MOTION_DOT":-2.5e-7,"MEAN_MOTION_DDOT":0},{"OBJECT_NAME":"HULIANWANG DIGUI-55","OBJECT_ID":"2025-168G","EPOCH":"2026-03-07T06:01:41.736864","MEAN_MOTION":13.29339237,"ECCENTRICITY":0.00113094,"INCLINATION":50.0012,"RA_OF_ASC_NODE":331.1373,"ARG_OF_PERICENTER":148.0284,"MEAN_ANOMALY":212.1276,"EPHEMERIS_TYPE":0,"CLASSIFICATION_TYPE":"U","NORAD_CAT_ID":65112,"ELEMENT_SET_NO":999,"REV_AT_EPOCH":2913,"BSTAR":0.0002065005,"MEAN_MOTION_DOT":-2.8e-7,"MEAN_MOTION_DDOT":0},{"OBJECT_NAME":"HULIANWANG DIGUI-56","OBJECT_ID":"2025-168H","EPOCH":"2026-03-07T05:49:41.704320","MEAN_MOTION":13.29338683,"ECCENTRICITY":0.00109986,"INCLINATION":50.0004,"RA_OF_ASC_NODE":331.0782,"ARG_OF_PERICENTER":169.9511,"MEAN_ANOMALY":190.1582,"EPHEMERIS_TYPE":0,"CLASSIFICATION_TYPE":"U","NORAD_CAT_ID":65113,"ELEMENT_SET_NO":999,"REV_AT_EPOCH":2913,"BSTAR":0.00022902536,"MEAN_MOTION_DOT":-1.8e-7,"MEAN_MOTION_DDOT":0},{"OBJECT_NAME":"HULIANWANG DIGUI-57","OBJECT_ID":"2025-168J","EPOCH":"2026-03-07T05:26:01.359168","MEAN_MOTION":13.2933563,"ECCENTRICITY":0.00087546,"INCLINATION":50.0031,"RA_OF_ASC_NODE":331.0482,"ARG_OF_PERICENTER":160.3811,"MEAN_ANOMALY":199.7399,"EPHEMERIS_TYPE":0,"CLASSIFICATION_TYPE":"U","NORAD_CAT_ID":65114,"ELEMENT_SET_NO":999,"REV_AT_EPOCH":2914,"BSTAR":0.00021180702,"MEAN_MOTION_DOT":-2.6e-7,"MEAN_MOTION_DDOT":0},{"OBJECT_NAME":"HULIANWANG DIGUI-58","OBJECT_ID":"2025-174A","EPOCH":"2026-03-07T06:37:58.609056","MEAN_MOTION":13.24421308,"ECCENTRICITY":0.00012704,"INCLINATION":86.4922,"RA_OF_ASC_NODE":286.4475,"ARG_OF_PERICENTER":89.3611,"MEAN_ANOMALY":270.7668,"EPHEMERIS_TYPE":0,"CLASSIFICATION_TYPE":"U","NORAD_CAT_ID":65164,"ELEMENT_SET_NO":999,"REV_AT_EPOCH":2730,"BSTAR":6.7261631e-5,"MEAN_MOTION_DOT":4.4e-7,"MEAN_MOTION_DDOT":0},{"OBJECT_NAME":"HULIANWANG DIGUI-59","OBJECT_ID":"2025-174B","EPOCH":"2026-03-07T06:48:50.966208","MEAN_MOTION":13.24421494,"ECCENTRICITY":0.00012492,"INCLINATION":86.4883,"RA_OF_ASC_NODE":286.3738,"ARG_OF_PERICENTER":88.4191,"MEAN_ANOMALY":271.7086,"EPHEMERIS_TYPE":0,"CLASSIFICATION_TYPE":"U","NORAD_CAT_ID":65165,"ELEMENT_SET_NO":999,"REV_AT_EPOCH":2730,"BSTAR":5.7460002e-5,"MEAN_MOTION_DOT":3.9e-7,"MEAN_MOTION_DDOT":0},{"OBJECT_NAME":"HULIANWANG DIGUI-60","OBJECT_ID":"2025-174C","EPOCH":"2026-03-07T06:59:41.343936","MEAN_MOTION":13.24421615,"ECCENTRICITY":0.00012339,"INCLINATION":86.4915,"RA_OF_ASC_NODE":286.4412,"ARG_OF_PERICENTER":90.9003,"MEAN_ANOMALY":269.2273,"EPHEMERIS_TYPE":0,"CLASSIFICATION_TYPE":"U","NORAD_CAT_ID":65166,"ELEMENT_SET_NO":999,"REV_AT_EPOCH":2730,"BSTAR":2.2059374e-5,"MEAN_MOTION_DOT":2.4e-7,"MEAN_MOTION_DDOT":0},{"OBJECT_NAME":"HULIANWANG DIGUI-61","OBJECT_ID":"2025-174D","EPOCH":"2026-03-07T07:10:39.190944","MEAN_MOTION":13.24420146,"ECCENTRICITY":0.00011828,"INCLINATION":86.4923,"RA_OF_ASC_NODE":286.4615,"ARG_OF_PERICENTER":90.4087,"MEAN_ANOMALY":269.7182,"EPHEMERIS_TYPE":0,"CLASSIFICATION_TYPE":"U","NORAD_CAT_ID":65167,"ELEMENT_SET_NO":999,"REV_AT_EPOCH":2730,"BSTAR":3.6684192e-5,"MEAN_MOTION_DOT":3.0e-7,"MEAN_MOTION_DDOT":0},{"OBJECT_NAME":"HULIANWANG DIGUI-62","OBJECT_ID":"2025-174E","EPOCH":"2026-03-07T07:21:27.736128","MEAN_MOTION":13.24421508,"ECCENTRICITY":0.0001198,"INCLINATION":86.4864,"RA_OF_ASC_NODE":286.3471,"ARG_OF_PERICENTER":93.2514,"MEAN_ANOMALY":266.8757,"EPHEMERIS_TYPE":0,"CLASSIFICATION_TYPE":"U","NORAD_CAT_ID":65168,"ELEMENT_SET_NO":999,"REV_AT_EPOCH":2730,"BSTAR":8.2430026e-5,"MEAN_MOTION_DOT":5.0e-7,"MEAN_MOTION_DDOT":0},{"OBJECT_NAME":"HULIANWANG DIGUI-63","OBJECT_ID":"2025-174F","EPOCH":"2026-03-07T05:43:31.836288","MEAN_MOTION":13.24421883,"ECCENTRICITY":0.00012064,"INCLINATION":86.4917,"RA_OF_ASC_NODE":286.4806,"ARG_OF_PERICENTER":90.0777,"MEAN_ANOMALY":270.0496,"EPHEMERIS_TYPE":0,"CLASSIFICATION_TYPE":"U","NORAD_CAT_ID":65169,"ELEMENT_SET_NO":999,"REV_AT_EPOCH":2729,"BSTAR":0.00011888008,"MEAN_MOTION_DOT":6.6e-7,"MEAN_MOTION_DDOT":0},{"OBJECT_NAME":"HULIANWANG DIGUI-64","OBJECT_ID":"2025-174G","EPOCH":"2026-03-07T05:54:24.740352","MEAN_MOTION":13.24421876,"ECCENTRICITY":0.0001198,"INCLINATION":86.4876,"RA_OF_ASC_NODE":286.4026,"ARG_OF_PERICENTER":92.6546,"MEAN_ANOMALY":267.4725,"EPHEMERIS_TYPE":0,"CLASSIFICATION_TYPE":"U","NORAD_CAT_ID":65170,"ELEMENT_SET_NO":999,"REV_AT_EPOCH":2729,"BSTAR":0.00010352292,"MEAN_MOTION_DOT":5.9e-7,"MEAN_MOTION_DDOT":0}]
