HULIANWANG DIGUI-49     
1 65106U 25168A   26066.29296857 -.00000036  00000+0  18963-3 0  9997
2 65106  50.0048 331.4209 0007422 158.2892 201.8296 13.29339114 29138
HULIANWANG DIGUI-50     
1 65107U 25168B   26066.28456527 -.00000043  00000+0  17494-3 0  9995
2 65107  50.0018 331.3198 0008408 144.2434 215.9003 13.29339684 29138
HULIANWANG DIGUI-51     
1 65108U 25168C   26066.27619964 -.00000040  00000+0  18219-3 0  9994
2 65108  50.0055 331.3465 0009760 144.2633 215.8894 13.29339962 29136
HULIANWANG DIGUI-52     
1 65109U 25168D   26066.26796180 -.00000036  00000+0  18975-3 0  9994
2 65109  50.0048 331.2860 0009615 157.2443 202.8857 13.29338593 29133
HULIANWANG DIGUI-53     
1 65110U 25168E   26066.25960721 -.00000035  00000+0  19209-3 0  9999
2 65110  50.0056 331.2644 0008434 146.8917 213.2485 13.29338482 29132
HULIANWANG DIGUI-54     
1 65111U 25168F   26066.23473306 -.00000025  00000+0  21392-3 0  9991
2 65111  50.0006 331.0436 0010008 152.1411 207.9998 13.29335812 29137
HULIANWANG DIGUI-55     
1 65112U 25168G   26066.25117751 -.00000028  00000+0  20650-3 0  9992
2 65112  50.0012 331.1373 0011309 148.0284 212.1276 13.29339237 29135
HULIANWANG DIGUI-56     
1 65113U 25168H   26066.24284380 -.00000018  00000+0  22903-3 0  9997
2 65113  50.0004 331.0782 0010998 169.9511 190.1582 13.29338683 29137
HULIANWANG DIGUI-57     
1 65114U 25168J   26066.22640462 -.00000026  00000+0  21181-3 0  9999
2 65114  50.0031 331.0482 0008754 160.3811 199.7399 13.29335630 29141
HULIANWANG DIGUI-58     
1 65164U 25174A   26066.27637279  .00000044  00000+0  67262-4 0  9998
2 65164  86.4922 286.4475 0001270  89.3611 270.7668 13.24421308 27305
HULIANWANG DIGUI-59     
1 65165U 25174B   26066.28392322  .00000039  00000+0  57460-4 0  9990
2 65165  86.4883 286.3738 0001249  88.4191 271.7086 13.24421494 27303
HULIANWANG DIGUI-60     
1 65166U 25174C   26066.29145074  .00000024  00000+0  22059-4 0  9992
2 65166  86.4915 286.4412 0001233  90.9003 269.2273 13.24421615 27308
HULIANWANG DIGUI-61     
1 65167U 25174D   26066.29906471  .00000030  00000+0  36684-4 0  9995
2 65167  86.4923 286.4615 0001182  90.4087 269.7182 13.24420146 27305
HULIANWANG DIGUI-62     
1 65168U 25174E   26066.30657102  .00000050  00000+0  82430-4 0  9994
2 65168  86.4864 286.3471 0001198  93.2514 266.8757 13.24421508 27301
HULIANWANG DIGUI-63     
1 65169U 25174F   26066.23856292  .00000066  00000+0  11888-3 0  9993
2 65169  86.4917 286.4806 0001206  90.0777 270.0496 13.24421883 27291
HULIANWANG DIGUI-64     
1 65170U 25174G   26066.24611968  .00000059  00000+0  10352-3 0  9992
2 65170  86.4876 286.4026 0001198  92.6546 267.4725 13.24421876 27290
